CCSDS_OMM_VERS,COMMENT,CREATION_DATE,ORIGINATOR,OBJECT_NAME,OBJECT_ID,CENTER_NAME,REF_FRAME,TIME_SYSTEM,MEAN_ELEMENT_THEORY,EPOCH,MEAN_MOTION,ECCENTRICITY,INCLINATION,RA_OF_ASC_NODE,ARG_OF_PERICENTER,MEAN_ANOMALY,EPHEMERIS_TYPE,CLASSIFICATION_TYPE,NORAD_CAT_ID,ELEMENT_SET_NO,REV_AT_EPOCH,BSTAR,MEAN_MOTION_DOT,MEAN_MOTION_DDOT,SEMIMAJOR_AXIS,PERIOD,APOAPSIS,PERIAPSIS,OBJECT_TYPE,RCS_SIZE,COUNTRY_CODE,LAUNCH_DATE,SITE,DECAY_DATE,FILE,GP_ID,TLE_LINE0,TLE_LINE1,TLE_LINE2
3.0,GENERATED VIA SPACE-TRACK.ORG API,2004-08-16T23:25:53,18 SPCS,COSMOS 1895 DEB,1987-092D,EARTH,TEME,UTC,SGP4,1987-11-27T02:54:32.811839,16.25420775,0.0012775,70.3497,183.4652,3.097,357.2736,0,U,18573,999,253,0.0026004,0.0785591,1.4821e-05,6583.016,88.592,213.29,196.471,DEBRIS,,,,,1987-11-27,34544,15662892,0 COSMOS 1895 DEB,1 18573U 87092  D 87331.12121310  .07855910 +14821-4 +26004-2 0  9992,2 18573 070.3497 183.4652 0012775 003.0970 357.2736 16.25420775002538
3.0,GENERATED VIA SPACE-TRACK.ORG API,2023-06-09T22:16:12,18 SPCS,ARIANE 1 DEB,1986-019X,EARTH,TEME,UTC,SGP4,2023-06-08T05:04:45.104160,16.3425695,0.0014456,98.2872,52.7354,193.623,166.4676,0,U,17128,999,91881,0.0040861,0.27853818,3.0798e-06,6559.262,88.113,190.609,171.644,DEBRIS,SMALL,FR,1986-02-22,FRGUI,2023-06-10,3928898,233551304,0 ARIANE 1 DEB,1 17128U 86019X   23159.21163315  .27853818  30798-5  40861-2 0  9990,2 17128  98.2872  52.7354 0014456 193.6230 166.4676 16.34256950918811
3.0,GENERATED VIA SPACE-TRACK.ORG API,2004-08-17T14:49:45,18 SPCS,PION 6,1992-056D,EARTH,TEME,UTC,SGP4,1992-09-24T07:26:54.545855,16.5276483,0.000675,82.5537,108.9549,240.6584,120.1974,0,U,22100,999,582,5.6071e-05,0.07253619,6.3668e-06,6510.206,87.126,136.465,127.676,PAYLOAD,,,,,1992-09-24,34844,18899270,0 PION 6,1 22100U 92056  D 92268.31035354  .07253619 +63668-5 +56071-4 0  9998,2 22100 082.5537 108.9549 0006750 240.6584 120.1974 16.52764830005821
3.0,GENERATED VIA SPACE-TRACK.ORG API,2004-08-17T14:45:12,18 SPCS,COSMOS 397 DEB,1971-015BC,EARTH,TEME,UTC,SGP4,1991-04-24T08:16:59.359007,16.03255309,0.0011565,65.6064,70.3415,283.8435,68.6202,0,U,5273,999,99710,0.02005,-0.11816925,0.07123,6643.551,89.817,273.1,257.733,DEBRIS,SMALL,CIS,1971-02-25,TTMTR,1991-04-24,34753,18068193,0 COSMOS 397 DEB,1 05273U 71015 BC 91114.34513147 -.11816925 +71230-1 +20050-1 0  9991,2 05273 065.6064 070.3415 0011565 283.8435 068.6202 16.03255309997101
3.0,GENERATED VIA SPACE-TRACK.ORG API,2005-05-02T23:40:10,18 SPCS,TITAN 3C TRANSTAGE DEB,1965-082CY,EARTH,TEME,UTC,SGP4,1989-11-01T23:55:05.055455,15.91453857,0.0029034,32.4282,157.8901,284.293,75.4773,0,U,1761,999,22945,0.038336,0.13514568,0.0,6676.354,90.483,317.604,278.835,DEBRIS,MEDIUM,US,1965-10-15,AFETR,1989-11-02,131042,43396437,0 TITAN 3C TRANSTAGE DEB,1 01761U 65082 CY 89305.99658629  .13514568 +00000-0 +38336-1 0  9992,2 01761 032.4282 157.8901 0029034 284.2930 075.4773 15.91453857229458
3.0,GENERATED VIA SPACE-TRACK.ORG API,2005-05-02T23:40:10,18 SPCS,SOLWIND DEB,1979-017LW,EARTH,TEME,UTC,SGP4,1989-02-28T00:03:58.673951,15.68341943,0.0003965,98.3469,136.3703,260.7961,100.2701,0,U,19060,999,5634,0.0041469,0.00464366,0.0,6741.785,91.816,366.323,360.977,DEBRIS,SMALL,US,1979-02-24,AFWTR,1989-03-12,131042,44044144,0 SOLWIND DEB,1 19060U 79017 LW 89059.00276243  .00464366 +00000-0 +41469-2 0  9990,2 19060 098.3469 136.3703 0003965 260.7961 100.2701 15.68341943056347
3.0,GENERATED VIA SPACE-TRACK.ORG API,2004-08-16T23:25:29,18 SPCS,COSMOS 1628 DEB,1985-012D,EARTH,TEME,UTC,SGP4,1987-07-14T06:53:23.806175,16.5423641,0.0011795,72.8208,296.6865,275.9749,84.2365,0,U,15569,999,13980,9.5064e-05,0.16231654,9.4005e-06,6506.344,87.049,135.883,120.535,DEBRIS,LARGE,CIS,1985-02-06,PKMTR,1987-07-14,34536,15456256,0 COSMOS 1628 DEB,1 15569U 85012  D 87195.28708109  .16231654 +94005-5 +95064-4 0  9996,2 15569 072.8208 296.6865 0011795 275.9749 084.2365 16.54236410139804
3.0,GENERATED VIA SPACE-TRACK.ORG API,2004-08-17T15:19:42,18 SPCS,ARIANE 44L R/B,1997-071C,EARTH,TEME,UTC,SGP4,1998-08-06T12:29:50.099999,15.85190894,0.0332564,7.0561,1.0847,205.5045,111.7115,0,U,25051,999,848,0.0016821,0.99999999,-3.2784e-05,6693.928,90.84,538.409,93.177,ROCKET BODY,LARGE,FR,1997-11-11,FRGUI,1998-08-06,35443,28140497,0 ARIANE 44L R/B,1 25051U 97071C   98218.52071875  .99999999 -32784-4  16821-2 0  9991,2 25051 007.0561 001.0847 0332564 205.5045 111.7115 15.85190894  8485
3.0,GENERATED VIA SPACE-TRACK.ORG API,2007-10-26T08:40:53,18 SPCS,CHANG'E 1,2007-051A,EARTH,TEME,UTC,SGP4,2007-10-26T12:00:00.000000,0.99670452,0.83529,31.03,168.776,185.021,35.8162,0,U,32273,999,2,0.0,-2.11e-06,0.0,42334.181,1444.761,71317.364,594.728,PAYLOAD,,PRC,2007-10-24,,2009-03-01,467585,63696867,0 CHANG'E 1,1 32273U 07051A   07299.50000000 -.00000211  00000-0  00000+0 0  9996,2 32273 031.0300 168.7760 8352900 185.0210 035.8162 00.99670452    24
3.0,GENERATED VIA SPACE-TRACK.ORG API,2023-10-01T21:05:08,18 SPCS,STORK-4,2021-058C,EARTH,TEME,UTC,SGP4,2023-10-01T00:40:41.981088,16.40126934,0.0006338,60.6724,331.3372,321.5531,38.5158,0,U,48873,999,12612,0.00099669,0.13579129,1.0061e-05,6543.602,87.798,169.614,161.32,PAYLOAD,MEDIUM,POL,2021-06-30,WRAS,2023-10-03,4021853,238210194,0 STORK-4,1 48873U 21058C   23274.02826367  .13579129  10061-4  99669-3 0  9999,2 48873  60.6724 331.3372 0006338 321.5531  38.5158 16.40126934126127
3.0,GENERATED VIA SPACE-TRACK.ORG API,2004-08-15T23:40:35,18 SPCS,SL-12 R/B(AUX MOTOR),1976-092D,EARTH,TEME,UTC,SGP4,1977-07-10T23:00:26.939232,9.04284954,0.3324444,46.3429,161.5976,110.7683,287.7152,0,U,9440,999,815,0.0,0.18824954,0.0,9731.921,159.241,6589.108,118.463,ROCKET BODY,,,,,1977-07-19,34010,10076668,0 SL-12 R/B(AUX MOTOR),1 09440U 76092  D 77191.95864513  .18824954 +00000-0 +00000-0 0  9998,2 09440 046.3429 161.5976 3324444 110.7683 287.7152 09.04284954008153
3.0,GENERATED VIA SPACE-TRACK.ORG API,2004-08-16T23:16:56,18 SPCS,MOLNIYA 2-8,1973-106A,EARTH,TEME,UTC,SGP4,1984-11-23T13:18:37.215359,13.25143497,0.1429085,63.4467,326.7725,257.1596,86.6607,0,U,7000,999,8262,0.00075153,0.50239106,1.5799e-05,7543.279,108.667,2243.142,87.145,PAYLOAD,LARGE,CIS,1973-12-25,PKMTR,1984-11-24,34365,13690471,0 MOLNIYA 2-8,1 07000U 73106  A 84328.55459740  .50239106 +15799-4 +75153-3 0  9993,2 07000 063.4467 326.7725 1429085 257.1596 086.6607 13.25143497082625
3.0,GENERATED VIA SPACE-TRACK.ORG API,2014-09-13T22:32:23,18 SPCS,COSMOS 1400,1982-079A,EARTH,TEME,UTC,SGP4,2014-09-13T16:01:36.616224,16.44432491,0.0010816,81.0858,318.9218,262.6711,226.2494,0,U,13402,999,76422,0.00079222,0.27275328,-9.4809e-07,6532.179,87.568,161.109,146.978,PAYLOAD,LARGE,CIS,1982-08-05,PKMTR,2014-09-13,1745339,96969162,0 COSMOS 1400,1 13402U 82079A   14256.66778491  .27275328 -94809-6  79222-3 0  9990,2 13402 081.0858 318.9218 0010816 262.6711 226.2494 16.44432491764223
3.0,GENERATED VIA SPACE-TRACK.ORG API,2004-05-28T19:16:02,18 SPCS,DELTA 1 DEB,1975-004GV,EARTH,TEME,UTC,SGP4,2002-10-22T17:15:44.784575,16.27187467,0.0009273,98.0284,303.4169,218.5338,141.5285,0,U,9711,999,42110,0.0047143,0.160689,2.9303e-06,6578.25,88.496,206.215,194.015,DEBRIS,MEDIUM,US,1975-01-22,AFWTR,2002-10-23,6965,3891627,0 DELTA 1 DEB,1  9711U 75004GV  02295.71926834 +.16068900 +29303-5 +47143-2 0  9995,2  9711 098.0284 303.4169 0009273 218.5338 141.5285 16.27187467421101
3.0,GENERATED VIA SPACE-TRACK.ORG API,2004-08-15T23:41:50,18 SPCS,COSMOS 1049,1978-107A,EARTH,TEME,UTC,SGP4,1978-12-04T02:59:32.231039,16.09383202,0.012338,72.8664,212.5744,47.4184,313.5328,0,U,11118,999,203,0.0,0.00270638,0.0,6626.677,89.475,330.302,166.782,PAYLOAD,,,,,1978-12-04,34035,10518915,0 COSMOS 1049,1 11118U 78107  A 78338.12467860  .00270638 +00000-0 +00000-0 0  9994,2 11118 072.8664 212.5744 0123380 047.4184 313.5328 16.09383202002031
3.0,GENERATED VIA SPACE-TRACK.ORG API,2004-08-17T15:12:39,18 SPCS,PROGRESS-M 36,1997-058A,EARTH,TEME,UTC,SGP4,1997-12-19T03:49:19.630272,15.61299314,0.0008788,51.6556,235.6829,96.688,263.5081,0,U,25002,999,1165,0.0005409,0.00046687,0.0,6762.044,92.23,389.851,377.966,PAYLOAD,LARGE,CIS,1997-10-05,TTMTR,1997-12-19,35302,26489052,0 PROGRESS-M 36,1 25002U 97058A   97353.15925498 +.00046687 +00000-0 +54090-3 0  9990,2 25002 051.6556 235.6829 0008788 096.6880 263.5081 15.61299314011651
3.0,GENERATED VIA SPACE-TRACK.ORG API,2004-08-15T23:36:44,18 SPCS,COSMOS 296,1969-075A,EARTH,TEME,UTC,SGP4,1969-09-04T08:15:34.909919,16.08851996,0.006756,64.9482,127.6931,47.2544,313.4234,0,U,4080,999,96,0.0,0.00191152,0.0,6628.135,89.504,294.78,205.22,PAYLOAD,,,,,1969-09-06,33933,8833464,0 COSMOS 296,1 04080U 69075  A 69247.34415405  .00191152 +00000-0 +00000-0 0  9992,2 04080 064.9482 127.6931 0067560 047.2544 313.4234 16.08851996000964
3.0,GENERATED VIA SPACE-TRACK.ORG API,2025-02-06T21:06:17,18 SPCS,STARLINK-1236,2020-012P,EARTH,TEME,UTC,SGP4,2025-02-06T18:23:33.089280,16.41701812,0.0004051,53.0359,348.5839,194.9331,247.3357,0,U,45191,999,27500,0.00054989,0.09346981,1.2343e-05,6539.416,87.714,163.93,158.632,PAYLOAD,LARGE,US,2020-02-17,AFETR,2025-02-07,4632735,280105246,0 STARLINK-1236,1 45191U 20012P   25037.76635520  .09346981  12343-4  54989-3 0  9991,2 45191  53.0359 348.5839 0004051 194.9331 247.3357 16.41701812275003
3.0,GENERATED VIA SPACE-TRACK.ORG API,2011-04-28T15:20:41,18 SPCS,IRIDIUM 33 DEB,1997-051LE,EARTH,TEME,UTC,SGP4,2011-04-27T14:50:21.602976,15.47178587,0.0009345,86.6162,180.7382,134.2225,226.2775,0,U,34707,999,11164,0.16031,0.09693548,0.0,6803.125,93.072,431.348,418.633,DEBRIS,SMALL,US,1997-09-14,TTMTR,2011-04-29,1079882,82854693,0 IRIDIUM 33 DEB,1 34707U 97051LE  11117.61830559  .09693548  00000-0  16031+0 0  9995,2 34707 086.6162 180.7382 0009345 134.2225 226.2775 15.47178587111648
